[{"OBJECT_NAME":"STARLINK-36256","OBJECT_ID":"2025-299B","EPOCH":"2026-03-09T17:49:57.137952","MEAN_MOTION":15.34100812,"ECCENTRICITY":0.00015407,"INCLINATION":42.9993,"RA_OF_ASC_NODE":168.7662,"ARG_OF_PERICENTER":312.3927,"MEAN_ANOMALY":47.6797,"EPHEMERIS_TYPE":0,"CLASSIFICATION_TYPE":"U","NORAD_CAT_ID":67103,"ELEMENT_SET_NO":999,"REV_AT_EPOCH":1312,"BSTAR":-0.0091362377,"MEAN_MOTION_DOT":-0.00296455,"MEAN_MOTION_DDOT":0},{"OBJECT_NAME":"CZ-2C R\/B","OBJECT_ID":"2023-032C","EPOCH":"2026-03-09T19:42:47.332224","MEAN_MOTION":15.40353492,"ECCENTRICITY":0.00338763,"INCLINATION":97.5715,"RA_OF_ASC_NODE":173.3039,"ARG_OF_PERICENTER":15.3476,"MEAN_ANOMALY":344.8789,"EPHEMERIS_TYPE":0,"CLASSIFICATION_TYPE":"U","NORAD_CAT_ID":55846,"ELEMENT_SET_NO":999,"REV_AT_EPOCH":16638,"BSTAR":0.00042068091,"MEAN_MOTION_DOT":0.00017253,"MEAN_MOTION_DDOT":0}]
